ONEWEB-0446             
1 51640U 22012U   24356.95610534  .00000393  00000+0  10909-2 0  9991
2 51640  87.8900 144.2878 0001648 108.1493 251.9814 13.10370061139611
ONEWEB-0448             
1 51641U 22012V   24357.41920948  .00000383  00000+0  10612-2 0  9997
2 51641  87.8899 144.1963 0001477  96.8972 263.2324 13.10368611139630
ONEWEB-0449             
1 51642U 22012W   24356.96605496 -.00000148  00000+0 -45972-3 0  9994
2 51642  87.8892 144.2708 0001730  94.3591 265.7734 13.10368530139591
ONEWEB-0451             
1 51643U 22012X   24357.32836289 -.00002645  00000+0 -68495-2 0  9990
2 51643  87.9073 113.7944 0001351 131.4466 228.6782 13.17629982143606
ONEWEB-0452             
1 51644U 22012Y   24356.79509066 -.00000169  00000+0 -46722-3 0  9990
2 51644  87.9102 113.9507 0001776  92.0373 268.0962 13.17649789142241
ONEWEB-0456             
1 51646U 22012AA  24357.43414886 -.00000362  00000+0 -10746-2 0  9990
2 51646  87.8887 144.1430 0001288 102.1604 257.9668 13.10369728139680
ONEWEB-0457             
1 51647U 22012AB  24356.49463949  .00000493  00000+0  13768-2 0  9990
2 51647  87.8897 144.3685 0001922  98.1668 261.9677 13.10369952138273
ONEWEB-0458             
1 51648U 22012AC  24357.43248906 -.00000317  00000+0 -94364-3 0  9999
2 51648  87.8882 144.1905 0001453  94.3588 265.7705 13.10369354139652
